NORAD_CAT_ID,OBJECT_NAME,OBJECT_TYPE,EPOCH,MEAN_MOTION,ECCENTRICITY,INCLINATION,RA_OF_ASC_NODE,ARG_OF_PERICENTER,MEAN_ANOMALY,BSTAR,MEAN_MOTION_DOT,MEAN_MOTION_DDOT,TLE_LINE0,TLE_LINE1,TLE_LINE2,SEMIMAJOR_AXIS,PERIOD,APOGEE,PERIGEE,DECAYED
53395.0,STARLINK-4534,PAYLOAD,2023-05-20 00:49:52,15.08837397,0.0001332,53.2199,43.9845,100.7657,259.3485,5.7942e-05,6.34e-06,0.0,0 STARLINK-4534,1 53395U 22097H   23140.03463792  .00000634  00000-0  57942-4 0  9993,2 53395  53.2199  43.9845 0001332 100.7657 259.3485 15.08837397 43334,6917.888,95.438,540.675,538.832,0.0
53395.0,STARLINK-4534,PAYLOAD,2023-05-21 02:16:02,15.08848333,0.0001179,53.2188,39.2257,99.3053,260.8072,8.3793e-05,1.046e-05,0.0,0 STARLINK-4534,1 53395U 22097H   23141.09446916  .00001046  00000-0  83793-4 0  9990,2 53395  53.2188  39.2257 0001179  99.3053 260.8072 15.08848333 43497,6917.855,95.437,540.536,538.904,0.0
53395.0,STARLINK-4534,PAYLOAD,2023-05-22 00:31:28,15.08827709,0.0001121,53.219,35.0626,95.5529,264.5591,-7.2382e-05,-1.439e-05,0.0,0 STARLINK-4534,1 53395U 22097H   23142.02185411 -.00001439  00000-0 -72382-4 0  9994,2 53395  53.2190  35.0626 0001121  95.5529 264.5591 15.08827709 43634,6917.918,95.438,540.558,539.007,0.0
53395.0,STARLINK-4534,PAYLOAD,2023-05-22 10:03:46,15.08838003,0.0001096,53.2191,33.2785,100.3825,259.729,1.6397e-05,-2.7e-07,0.0,0 STARLINK-4534,1 53395U 22097H   23142.41928659 -.00000027  00000-0  16397-4 0  9991,2 53395  53.2191  33.2785 0001096 100.3825 259.7290 15.08838003 43693,6917.886,95.438,540.51,538.993,0.0
53395.0,STARLINK-4534,PAYLOAD,2023-05-22 19:36:04,15.08847845,9.26e-05,53.2173,31.4982,98.1851,261.9246,6.1139e-05,6.86e-06,0.0,0 STARLINK-4534,1 53395U 22097H   23142.81671753  .00000686  00000-0  61139-4 0  9999,2 53395  53.2173  31.4982 0000926  98.1851 261.9246 15.08847845 44248,6917.856,95.437,540.362,539.081,0.0
53395.0,STARLINK-4534,PAYLOAD,2023-05-23 01:57:36,15.08857339,0.0001039,53.2189,30.302,113.9267,246.1834,0.00014176,1.97e-05,0.0,0 STARLINK-4534,1 53395U 22097H   23143.08166884  .00001970  00000-0  14176-3 0  9998,2 53395  53.2189  30.3020 0001039 113.9267 246.1834 15.08857339 43795,6917.827,95.436,540.411,538.974,0.0
53395.0,STARLINK-4534,PAYLOAD,2023-05-23 22:37:37,15.08842551,0.0002151,53.2176,26.4337,102.0762,258.0471,0.00017424,2.486e-05,0.0,0 STARLINK-4534,1 53395U 22097H   23143.94280051  .00002486  00000-0  17424-3 0  9998,2 53395  53.2176  26.4337 0002151 102.0762 258.0471 15.08842551 44412,6917.873,95.437,541.226,538.25,0.0
53395.0,STARLINK-4534,PAYLOAD,2023-05-25 19:08:26,15.08840195,9.23e-05,53.2179,18.1131,83.7795,276.3302,7.7457e-05,9.45e-06,0.0,0 STARLINK-4534,1 53395U 22097H   23145.79752478  .00000945  00000-0  77457-4 0  9991,2 53395  53.2179  18.1131 0000923  83.7795 276.3302 15.08840195 44206,6917.88,95.438,540.383,539.106,0.0
53395.0,STARLINK-4534,PAYLOAD,2023-05-25 22:19:12,15.08842896,9.76e-05,53.218,17.5182,87.8064,272.3039,9.7956e-05,1.272e-05,0.0,0 STARLINK-4534,1 53395U 22097H   23145.93000220  .00001272  00000-0  97956-4 0  9998,2 53395  53.2180  17.5182 0000976  87.8064 272.3039 15.08842896 44718,6917.872,95.437,540.412,539.061,0.0
53395.0,STARLINK-4534,PAYLOAD,2023-05-26 18:59:13,15.08836718,0.0001013,53.2182,13.6521,84.0001,276.1107,3.5639e-05,2.79e-06,0.0,0 STARLINK-4534,1 53395U 22097H   23146.79112881  .00000279  00000-0  35639-4 0  9996,2 53395  53.2182  13.6521 0001013  84.0001 276.1107 15.08836718 44351,6917.89,95.438,540.456,539.055,0.0
53395.0,STARLINK-4534,PAYLOAD,2023-05-26 20:34:36,15.08837279,0.0001021,53.2183,13.3549,83.9076,276.2032,3.9018e-05,3.33e-06,0.0,0 STARLINK-4534,1 53395U 22097H   23146.85736830  .00000333  00000-0  39018-4 0  9995,2 53395  53.2183  13.3549 0001021  83.9076 276.2032 15.08837279 44854,6917.889,95.438,540.46,539.047,0.0
53395.0,STARLINK-4534,PAYLOAD,2023-05-27 20:25:23,15.08838541,0.000109,53.2189,8.8922,93.8864,266.2253,-2.6344e-06,-3.3e-06,0.0,0 STARLINK-4534,1 53395U 22097H   23147.85096968 -.00000330  00000-0 -26344-5 0  9995,2 53395  53.2189   8.8922 0001090  93.8864 266.2253 15.08838541 44515,6917.885,95.438,540.504,538.996,0.0
53395.0,STARLINK-4534,PAYLOAD,2023-05-27 22:00:46,15.08838779,0.0001092,53.2188,8.5947,95.5263,264.5854,-1.6785e-06,-3.14e-06,0.0,0 STARLINK-4534,1 53395U 22097H   23147.91720942 -.00000314  00000-0 -16785-5 0  9998,2 53395  53.2188   8.5947 0001092  95.5263 264.5854 15.08838779 45019,6917.884,95.438,540.505,538.994,0.0
53395.0,STARLINK-4534,PAYLOAD,2023-05-28 01:11:33,15.08838912,0.0001091,53.2188,8.0001,95.2763,264.8354,-9.5623e-07,-3.03e-06,0.0,0 STARLINK-4534,1 53395U 22097H   23148.04968939 -.00000303  00000-0 -95623-6 0  9990,2 53395  53.2188   8.0001 0001091  95.2763 264.8354 15.08838912 45035,6917.884,95.438,540.503,538.994,0.0
53395.0,STARLINK-4534,PAYLOAD,2023-05-28 21:51:33,15.08846655,9.58e-05,53.218,4.1363,99.6238,260.4863,7.5598e-05,9.16e-06,0.0,0 STARLINK-4534,1 53395U 22097H   23148.91080288  .00000916  00000-0  75598-4 0  9993,2 53395  53.2180   4.1363 0000958  99.6238 260.4863 15.08846655 45165,6917.86,95.437,540.388,539.062,0.0
53395.0,STARLINK-4534,PAYLOAD,2023-05-28 23:26:56,15.08848253,9.91e-05,53.2181,3.839,96.309,263.8015,0.00011614,1.561e-05,0.0,0 STARLINK-4534,1 53395U 22097H   23148.97704062  .00001561  00000-0  11614-3 0  9997,2 53395  53.2181   3.8390 0000991  96.3090 263.8015 15.08848253 44687,6917.855,95.437,540.406,539.035,0.0
53395.0,STARLINK-4534,PAYLOAD,2023-05-29 16:56:11,15.08836056,0.0001104,53.2186,0.5678,85.1618,274.95,4.9936e-06,-2.08e-06,0.0,0 STARLINK-4534,1 53395U 22097H   23149.70569317 -.00000208  00000-0  49936-5 0  9999,2 53395  53.2186   0.5678 0001104  85.1618 274.9500 15.08836056 44796,6917.892,95.438,540.521,538.994,0.0
53395.0,STARLINK-4534,PAYLOAD,2023-05-29 20:06:57,15.08838684,9.73e-05,53.2184,359.9733,96.396,263.7143,2.644e-05,1.33e-06,0.0,0 STARLINK-4534,1 53395U 22097H   23149.83817033  .00000133  00000-0  26440-4 0  9994,2 53395  53.2184 359.9733 0000973  96.3960 263.7143 15.08838684 45300,6917.884,95.438,540.423,539.076,0.0
53395.0,STARLINK-4534,PAYLOAD,2023-05-30 13:36:12,15.08837596,9.76e-05,53.218,356.7027,98.7269,261.3833,3.8191e-05,3.2e-06,0.0,0 STARLINK-4534,1 53395U 22097H   23150.56681156  .00000320  00000-0  38191-4 0  9995,2 53395  53.2180 356.7027 0000976  98.7269 261.3833 15.08837596 45411,6917.888,95.438,540.428,539.078,0.0
53395.0,STARLINK-4534,PAYLOAD,2023-05-30 19:57:44,15.08845119,9.79e-05,53.2181,355.5133,92.6267,267.4837,-1.1944e-06,-3.07e-06,0.0,0 STARLINK-4534,1 53395U 22097H   23150.83176848 -.00000307  00000-0 -11944-5 0  9997,2 53395  53.2181 355.5133 0000979  92.6267 267.4837 15.08845119 45456,6917.865,95.437,540.407,539.052,0.0
53395.0,STARLINK-4534,PAYLOAD,2023-05-31 19:48:31,15.08845654,9.45e-05,53.2179,351.0535,90.6115,269.4985,9.8333e-05,1.278e-05,0.0,0 STARLINK-4534,1 53395U 22097H   23151.82536451  .00001278  00000-0  98333-4 0  9999,2 53395  53.2179 351.0535 0000945  90.6115 269.4985 15.08845654 45600,6917.863,95.437,540.382,539.074,0.0
53395.0,STARLINK-4534,PAYLOAD,2023-06-02 19:30:06,15.08837656,9.24e-05,53.2171,342.1336,91.6242,268.4855,-4.4522e-05,-9.96e-06,0.0,0 STARLINK-4534,1 53395U 22097H   23153.81257541 -.00000996  00000-0 -44522-4 0  9999,2 53395  53.2171 342.1336 0000924  91.6242 268.4855 15.08837656 45418,6917.888,95.438,540.392,539.113,0.0
53395.0,STARLINK-4534,PAYLOAD,2023-06-03 12:59:21,15.08832935,8.65e-05,53.2175,338.8619,95.5781,264.531,1.5428e-05,-4.2e-07,0.0,0 STARLINK-4534,1 53395U 22097H   23154.54121844 -.00000042  00000-0  15428-4 0  9990,2 53395  53.2175 338.8619 0000865  95.5781 264.5310 15.08832935 46018,6917.902,95.438,540.365,539.169,0.0
53395.0,STARLINK-4534,PAYLOAD,2023-06-03 19:20:53,15.0883692,0.0001024,53.2175,337.6727,95.9328,264.1781,9.2477e-05,1.184e-05,0.0,0 STARLINK-4534,1 53395U 22097H   23154.80617456  .00001184  00000-0  92477-4 0  9994,2 53395  53.2175 337.6727 0001024  95.9328 264.1781 15.08836920 46054,6917.89,95.438,540.463,539.046,0.0
53395.0,STARLINK-4534,PAYLOAD,2023-06-04 04:53:12,15.08834003,9.43e-05,53.2176,335.8885,93.2344,266.8756,0.00010028,1.308e-05,0.0,0 STARLINK-4534,1 53395U 22097H   23155.20361750  .00001308  00000-0  10028-3 0  9991,2 53395  53.2176 335.8885 0000943  93.2344 266.8756 15.08834003 45621,6917.899,95.438,540.416,539.111,0.0
53395.0,STARLINK-4534,PAYLOAD,2023-06-04 12:50:08,15.08834555,9.29e-05,53.2177,334.4015,87.1973,272.9125,6.094e-05,6.82e-06,0.0,0 STARLINK-4534,1 53395U 22097H   23155.53481926  .00000682  00000-0  60940-4 0  9998,2 53395  53.2177 334.4015 0000929  87.1973 272.9125 15.08834555 46166,6917.897,95.438,540.405,539.119,0.0
53395.0,STARLINK-4534,PAYLOAD,2023-06-04 20:47:03,15.08843554,9.51e-05,53.2177,332.9148,88.9729,271.1372,0.00013031,1.787e-05,0.0,0 STARLINK-4534,1 53395U 22097H   23155.86601198  .00001787  00000-0  13031-3 0  9994,2 53395  53.2177 332.9148 0000951  88.9729 271.1372 15.08843554 46219,6917.87,95.437,540.392,539.077,0.0
53395.0,STARLINK-4534,PAYLOAD,2023-06-05 11:05:32,15.08837975,8.82e-05,53.2193,330.2395,90.0261,270.0833,9.6973e-05,1.256e-05,0.0,0 STARLINK-4534,1 53395U 22097H   23156.46217633  .00001256  00000-0  96973-4 0  9996,2 53395  53.2193 330.2395 0000882  90.0261 270.0833 15.08837975 45815,6917.887,95.438,540.362,539.141,0.0
53395.0,STARLINK-4534,PAYLOAD,2023-06-05 17:27:03,15.08906525,6.72e-05,53.2179,329.0496,85.4601,274.6468,-0.00087188,-0.00014162,0.0,0 STARLINK-4534,1 53395U 22097H   23156.72712110 -.00014162  00000-0 -87188-3 0  9994,2 53395  53.2179 329.0496 0000672  85.4601 274.6468 15.08906525 45856,6917.677,95.433,540.007,539.077,0.0
53395.0,STARLINK-4534,PAYLOAD,2023-06-05 20:37:50,15.0884371,0.0001009,53.2183,328.4538,77.742,282.3685,5.7627e-05,6.3e-06,0.0,0 STARLINK-4534,1 53395U 22097H   23156.85961452  .00000630  00000-0  57627-4 0  9992,2 53395  53.2183 328.4538 0001009  77.7420 282.3685 15.08843710 46369,6917.869,95.437,540.432,539.036,0.0
